[
    {
        "OBJECT_NAME": "NAVSTAR 1 (OPS 5111)",
        "OBJECT_ID": "1978-020A",
        "EPOCH": "2026-06-19T10:39:52.510464",
        "MEAN_MOTION": 1.98072118,
        "ECCENTRICITY": 0.00809352,
        "INCLINATION": 64.3497,
        "RA_OF_ASC_NODE": 52.2526,
        "ARG_OF_PERICENTER": 218.6529,
        "MEAN_ANOMALY": 140.8214,
        "EPHEMERIS_TYPE": 0,
        "CLASSIFICATION_TYPE": "U",
        "NORAD_CAT_ID": 10684,
        "ELEMENT_SET_NO": 999,
        "REV_AT_EPOCH": 33648,
        "BSTAR": 0,
        "MEAN_MOTION_DOT": -6.1e-07,
        "MEAN_MOTION_DDOT": 0
    },
    {
        "OBJECT_NAME": "NAVSTAR 2 (OPS 5112)",
        "OBJECT_ID": "1978-047A",
        "EPOCH": "2026-06-18T05:31:46.959168",
        "MEAN_MOTION": 2.01627014,
        "ECCENTRICITY": 0.0545856,
        "INCLINATION": 62.6631,
        "RA_OF_ASC_NODE": 272.2524,
        "ARG_OF_PERICENTER": 41.6077,
        "MEAN_ANOMALY": 5.7202,
        "EPHEMERIS_TYPE": 0,
        "CLASSIFICATION_TYPE": "U",
        "NORAD_CAT_ID": 10893,
        "ELEMENT_SET_NO": 999,
        "REV_AT_EPOCH": 35375,
        "BSTAR": 0,
        "MEAN_MOTION_DOT": -2.6e-07,
        "MEAN_MOTION_DDOT": 0
    },
    {
        "OBJECT_NAME": "NAVSTAR 3 (OPS 5113)",
        "OBJECT_ID": "1978-093A",
        "EPOCH": "2026-06-20T10:00:26.260704",
        "MEAN_MOTION": 1.93504668,
        "ECCENTRICITY": 0.0101333,
        "INCLINATION": 62.9274,
        "RA_OF_ASC_NODE": 300.085,
        "ARG_OF_PERICENTER": 227.0972,
        "MEAN_ANOMALY": 118.5901,
        "EPHEMERIS_TYPE": 0,
        "CLASSIFICATION_TYPE": "U",
        "NORAD_CAT_ID": 11054,
        "ELEMENT_SET_NO": 999,
        "REV_AT_EPOCH": 34073,
        "BSTAR": 0,
        "MEAN_MOTION_DOT": -7e-07,
        "MEAN_MOTION_DDOT": 0
    },
    {
        "OBJECT_NAME": "NAVSTAR 4 (OPS 5114)",
        "OBJECT_ID": "1978-112A",
        "EPOCH": "2026-06-20T08:53:38.619168",
        "MEAN_MOTION": 1.92895491,
        "ECCENTRICITY": 0.0145543,
        "INCLINATION": 63.7079,
        "RA_OF_ASC_NODE": 72.0261,
        "ARG_OF_PERICENTER": 50.6486,
        "MEAN_ANOMALY": 89.0916,
        "EPHEMERIS_TYPE": 0,
        "CLASSIFICATION_TYPE": "U",
        "NORAD_CAT_ID": 11141,
        "ELEMENT_SET_NO": 999,
        "REV_AT_EPOCH": 22915,
        "BSTAR": 0,
        "MEAN_MOTION_DOT": -4.8e-07,
        "MEAN_MOTION_DDOT": 0
    },
    {
        "OBJECT_NAME": "NAVSTAR 5 (OPS 5117)",
        "OBJECT_ID": "1980-011A",
        "EPOCH": "2026-06-18T02:20:25.730592",
        "MEAN_MOTION": 2.00576741,
        "ECCENTRICITY": 0.04885212,
        "INCLINATION": 64.7859,
        "RA_OF_ASC_NODE": 48.5806,
        "ARG_OF_PERICENTER": 205.0664,
        "MEAN_ANOMALY": 338.3913,
        "EPHEMERIS_TYPE": 0,
        "CLASSIFICATION_TYPE": "U",
        "NORAD_CAT_ID": 11690,
        "ELEMENT_SET_NO": 999,
        "REV_AT_EPOCH": 35374,
        "BSTAR": 0,
        "MEAN_MOTION_DOT": -5.2e-07,
        "MEAN_MOTION_DDOT": 0
    },
    {
        "OBJECT_NAME": "NAVSTAR 6 (OPS 5118)",
        "OBJECT_ID": "1980-032A",
        "EPOCH": "2026-06-15T12:15:01.773216",
        "MEAN_MOTION": 2.03455682,
        "ECCENTRICITY": 0.05524473,
        "INCLINATION": 61.8397,
        "RA_OF_ASC_NODE": 248.4866,
        "ARG_OF_PERICENTER": 51.6495,
        "MEAN_ANOMALY": 314.6202,
        "EPHEMERIS_TYPE": 0,
        "CLASSIFICATION_TYPE": "U",
        "NORAD_CAT_ID": 11783,
        "ELEMENT_SET_NO": 999,
        "REV_AT_EPOCH": 34172,
        "BSTAR": 0,
        "MEAN_MOTION_DOT": 2.9e-07,
        "MEAN_MOTION_DDOT": 0
    },
    {
        "OBJECT_NAME": "NAVSTAR 8 (OPS 9794)",
        "OBJECT_ID": "1983-072A",
        "EPOCH": "2026-06-19T07:53:29.027616",
        "MEAN_MOTION": 1.91719313,
        "ECCENTRICITY": 0.022299,
        "INCLINATION": 63.4351,
        "RA_OF_ASC_NODE": 68.8186,
        "ARG_OF_PERICENTER": 56.6635,
        "MEAN_ANOMALY": 115.2456,
        "EPHEMERIS_TYPE": 0,
        "CLASSIFICATION_TYPE": "U",
        "NORAD_CAT_ID": 14189,
        "ELEMENT_SET_NO": 999,
        "REV_AT_EPOCH": 22676,
        "BSTAR": 0,
        "MEAN_MOTION_DOT": -4.3e-07,
        "MEAN_MOTION_DDOT": 0
    },
    {
        "OBJECT_NAME": "NAVSTAR 9 (USA 1)",
        "OBJECT_ID": "1984-059A",
        "EPOCH": "2026-06-20T06:20:48.365088",
        "MEAN_MOTION": 1.92302742,
        "ECCENTRICITY": 0.0243414,
        "INCLINATION": 63.5826,
        "RA_OF_ASC_NODE": 64.2078,
        "ARG_OF_PERICENTER": 53.9544,
        "MEAN_ANOMALY": 140.26,
        "EPHEMERIS_TYPE": 0,
        "CLASSIFICATION_TYPE": "U",
        "NORAD_CAT_ID": 15039,
        "ELEMENT_SET_NO": 999,
        "REV_AT_EPOCH": 29818,
        "BSTAR": 0,
        "MEAN_MOTION_DOT": -5.8e-07,
        "MEAN_MOTION_DDOT": 0
    },
    {
        "OBJECT_NAME": "NAVSTAR 10 (USA 5)",
        "OBJECT_ID": "1984-097A",
        "EPOCH": "2026-06-20T09:00:23.367744",
        "MEAN_MOTION": 1.92619076,
        "ECCENTRICITY": 0.0148429,
        "INCLINATION": 62.138,
        "RA_OF_ASC_NODE": 290.8468,
        "ARG_OF_PERICENTER": 226.7819,
        "MEAN_ANOMALY": 194.3231,
        "EPHEMERIS_TYPE": 0,
        "CLASSIFICATION_TYPE": "U",
        "NORAD_CAT_ID": 15271,
        "ELEMENT_SET_NO": 999,
        "REV_AT_EPOCH": 29638,
        "BSTAR": 0,
        "MEAN_MOTION_DOT": -6.8e-07,
        "MEAN_MOTION_DDOT": 0
    },
    {
        "OBJECT_NAME": "NAVSTAR 11 (USA 10)",
        "OBJECT_ID": "1985-093A",
        "EPOCH": "2026-06-19T14:34:14.178720",
        "MEAN_MOTION": 1.89368737,
        "ECCENTRICITY": 0.03430422,
        "INCLINATION": 63.561,
        "RA_OF_ASC_NODE": 84.5489,
        "ARG_OF_PERICENTER": 56.0093,
        "MEAN_ANOMALY": 123.7872,
        "EPHEMERIS_TYPE": 0,
        "CLASSIFICATION_TYPE": "U",
        "NORAD_CAT_ID": 16129,
        "ELEMENT_SET_NO": 999,
        "REV_AT_EPOCH": 22934,
        "BSTAR": 0,
        "MEAN_MOTION_DOT": -2e-07,
        "MEAN_MOTION_DDOT": 0
    },
    {
        "OBJECT_NAME": "NAVSTAR 13 (USA 35)",
        "OBJECT_ID": "1989-013A",
        "EPOCH": "2026-06-20T02:26:01.829184",
        "MEAN_MOTION": 1.85325516,
        "ECCENTRICITY": 0.00437594,
        "INCLINATION": 55.0296,
        "RA_OF_ASC_NODE": 94.5331,
        "ARG_OF_PERICENTER": 250.9302,
        "MEAN_ANOMALY": 286.3043,
        "EPHEMERIS_TYPE": 0,
        "CLASSIFICATION_TYPE": "U",
        "NORAD_CAT_ID": 19802,
        "ELEMENT_SET_NO": 999,
        "REV_AT_EPOCH": 25832,
        "BSTAR": 0,
        "MEAN_MOTION_DOT": -1.6e-07,
        "MEAN_MOTION_DDOT": 0
    },
    {
        "OBJECT_NAME": "NAVSTAR 14 (USA 38)",
        "OBJECT_ID": "1989-044A",
        "EPOCH": "2026-06-19T11:27:49.397184",
        "MEAN_MOTION": 1.8885822,
        "ECCENTRICITY": 0.00286035,
        "INCLINATION": 53.3027,
        "RA_OF_ASC_NODE": 239.6226,
        "ARG_OF_PERICENTER": 211.7523,
        "MEAN_ANOMALY": 144.0148,
        "EPHEMERIS_TYPE": 0,
        "CLASSIFICATION_TYPE": "U",
        "NORAD_CAT_ID": 20061,
        "ELEMENT_SET_NO": 999,
        "REV_AT_EPOCH": 26182,
        "BSTAR": 0,
        "MEAN_MOTION_DOT": -1.6e-07,
        "MEAN_MOTION_DDOT": 0
    },
    {
        "OBJECT_NAME": "NAVSTAR 15 (USA 42)",
        "OBJECT_ID": "1989-064A",
        "EPOCH": "2026-06-20T09:38:33.345312",
        "MEAN_MOTION": 1.8608835,
        "ECCENTRICITY": 0.0012155,
        "INCLINATION": 54.9709,
        "RA_OF_ASC_NODE": 89.2618,
        "ARG_OF_PERICENTER": 323.8729,
        "MEAN_ANOMALY": 211.5006,
        "EPHEMERIS_TYPE": 0,
        "CLASSIFICATION_TYPE": "U",
        "NORAD_CAT_ID": 20185,
        "ELEMENT_SET_NO": 999,
        "REV_AT_EPOCH": 25626,
        "BSTAR": 0,
        "MEAN_MOTION_DOT": -2.9e-07,
        "MEAN_MOTION_DDOT": 0
    },
    {
        "OBJECT_NAME": "NAVSTAR 16 (USA 47)",
        "OBJECT_ID": "1989-085A",
        "EPOCH": "2026-06-17T19:44:42.783360",
        "MEAN_MOTION": 1.89425991,
        "ECCENTRICITY": 0.00081123,
        "INCLINATION": 53.9744,
        "RA_OF_ASC_NODE": 183.5439,
        "ARG_OF_PERICENTER": 70.9866,
        "MEAN_ANOMALY": 289.1442,
        "EPHEMERIS_TYPE": 0,
        "CLASSIFICATION_TYPE": "U",
        "NORAD_CAT_ID": 20302,
        "ELEMENT_SET_NO": 999,
        "REV_AT_EPOCH": 25855,
        "BSTAR": 0,
        "MEAN_MOTION_DOT": 5.5e-07,
        "MEAN_MOTION_DDOT": 0
    },
    {
        "OBJECT_NAME": "NAVSTAR 17 (USA 49)",
        "OBJECT_ID": "1989-097A",
        "EPOCH": "2026-06-17T05:27:11.843424",
        "MEAN_MOTION": 1.89176159,
        "ECCENTRICITY": 0.00226827,
        "INCLINATION": 56.3905,
        "RA_OF_ASC_NODE": 11.0654,
        "ARG_OF_PERICENTER": 322.562,
        "MEAN_ANOMALY": 193.8469,
        "EPHEMERIS_TYPE": 0,
        "CLASSIFICATION_TYPE": "U",
        "NORAD_CAT_ID": 20361,
        "ELEMENT_SET_NO": 999,
        "REV_AT_EPOCH": 24935,
        "BSTAR": 0,
        "MEAN_MOTION_DOT": -9.1e-07,
        "MEAN_MOTION_DDOT": 0
    },
    {
        "OBJECT_NAME": "NAVSTAR 18 (USA 50)",
        "OBJECT_ID": "1990-008A",
        "EPOCH": "2026-06-20T04:12:04.346784",
        "MEAN_MOTION": 1.89597754,
        "ECCENTRICITY": 0.001588,
        "INCLINATION": 54.8639,
        "RA_OF_ASC_NODE": 133.544,
        "ARG_OF_PERICENTER": 283.2959,
        "MEAN_ANOMALY": 252.9262,
        "EPHEMERIS_TYPE": 0,
        "CLASSIFICATION_TYPE": "U",
        "NORAD_CAT_ID": 20452,
        "ELEMENT_SET_NO": 999,
        "REV_AT_EPOCH": 25648,
        "BSTAR": 0,
        "MEAN_MOTION_DOT": 5.3e-07,
        "MEAN_MOTION_DDOT": 0
    }
]